[
    {
        "Altitude(m)": 554559.2123096901,
        "Argument of Periapsis(deg)": 0.026491964442854003,
        "Eccentricity": 0.0,
        "Inclination(deg)": 53.0,
        "Latitude(deg)": 26.71504207408824,
        "Longitude(deg)": -110.34257497142814,
        "Mean Anomaly(deg)": 145.82097147031033,
        "RAAN(deg)": 194.9605734741121,
        "Satellite Name": "Starlink Shell 1 864",
        "Satellite Number": 864,
        "Semi-Major Axis(m)": 6931778.249405717,
        "Time(s)": 760
    },
    {
        "Altitude(m)": 554495.7170501397,
        "Argument of Periapsis(deg)": 0.02684054292236524,
        "Eccentricity": 0.0,
        "Inclination(deg)": 53.0,
        "Latitude(deg)": 26.24828233681743,
        "Longitude(deg)": -109.91421402428651,
        "Mean Anomaly(deg)": 146.44780267386702,
        "RAAN(deg)": 194.96005470403458,
        "Satellite Name": "Starlink Shell 1 864",
        "Satellite Number": 864,
        "Semi-Major Axis(m)": 6931778.249405717,
        "Time(s)": 770
    },
    {
        "Altitude(m)": 554433.7065178332,
        "Argument of Periapsis(deg)": 0.027189121401876473,
        "Eccentricity": 0.0,
        "Inclination(deg)": 53.0,
        "Latitude(deg)": 25.779969879947778,
        "Longitude(deg)": -109.48959456319695,
        "Mean Anomaly(deg)": 147.07463387742382,
        "RAAN(deg)": 194.95953593395714,
        "Satellite Name": "Starlink Shell 1 864",
        "Satellite Number": 864,
        "Semi-Major Axis(m)": 6931778.249405717,
        "Time(s)": 780
    },
    {
        "Altitude(m)": 554373.2304246009,
        "Argument of Periapsis(deg)": 0.02753769988138771,
        "Eccentricity": 0.0,
        "Inclination(deg)": 53.0,
        "Latitude(deg)": 25.310147892895433,
        "Longitude(deg)": -109.06862237358368,
        "Mean Anomaly(deg)": 147.7014650809805,
        "RAAN(deg)": 194.95901716387962,
        "Satellite Name": "Starlink Shell 1 864",
        "Satellite Number": 864,
        "Semi-Major Axis(m)": 6931778.249405717,
        "Time(s)": 790
    },
    {
        "Altitude(m)": 554314.3378900683,
        "Argument of Periapsis(deg)": 0.02788627836089895,
        "Eccentricity": 0.0,
        "Inclination(deg)": 53.0,
        "Latitude(deg)": 24.838858669174595,
        "Longitude(deg)": -108.65120503781989,
        "Mean Anomaly(deg)": 148.32829628453723,
        "RAAN(deg)": 194.9584983938022,
        "Satellite Name": "Starlink Shell 1 864",
        "Satellite Number": 864,
        "Semi-Major Axis(m)": 6931778.249405717,
        "Time(s)": 800
    },
    {
        "Altitude(m)": 554257.0774152013,
        "Argument of Periapsis(deg)": 0.02823485684041019,
        "Eccentricity": 0.0,
        "Inclination(deg)": 53.0,
        "Latitude(deg)": 24.366143633673573,
        "Longitude(deg)": -108.23725141836789,
        "Mean Anomaly(deg)": 148.9551274880939,
        "RAAN(deg)": 194.95797962372473,
        "Satellite Name": "Starlink Shell 1 864",
        "Satellite Number": 864,
        "Semi-Major Axis(m)": 6931778.249405717,
        "Time(s)": 810
    },
    {
        "Altitude(m)": 554201.496856125,
        "Argument of Periapsis(deg)": 0.028583435319921423,
        "Eccentricity": 0.0,
        "Inclination(deg)": 53.0,
        "Latitude(deg)": 23.892043369401616,
        "Longitude(deg)": -107.82667113919942,
        "Mean Anomaly(deg)": 149.58195869165064,
        "RAAN(deg)": 194.95746085364723,
        "Satellite Name": "Starlink Shell 1 864",
        "Satellite Number": 864,
        "Semi-Major Axis(m)": 6931778.249405717,
        "Time(s)": 820
    },
    {
        "Altitude(m)": 554147.6433982287,
        "Argument of Periapsis(deg)": 0.028932013799432665,
        "Eccentricity": 0.0,
        "Inclination(deg)": 53.0,
        "Latitude(deg)": 23.416597643707092,
        "Longitude(deg)": -107.41937557852839,
        "Mean Anomaly(deg)": 150.20878989520736,
        "RAAN(deg)": 194.95694208356977,
        "Satellite Name": "Starlink Shell 1 864",
        "Satellite Number": 864,
        "Semi-Major Axis(m)": 6931778.249405717,
        "Time(s)": 830
    },
    {
        "Altitude(m)": 554095.5635305604,
        "Argument of Periapsis(deg)": 0.029280592278943897,
        "Eccentricity": 0.0,
        "Inclination(deg)": 53.0,
        "Latitude(deg)": 22.939845433961242,
        "Longitude(deg)": -107.01527734725775,
        "Mean Anomaly(deg)": 150.83562109876408,
        "RAAN(deg)": 194.9564233134923,
        "Satellite Name": "Starlink Shell 1 864",
        "Satellite Number": 864,
        "Semi-Major Axis(m)": 6931778.249405717,
        "Time(s)": 840
    },
    {
        "Altitude(m)": 554045.303020534,
        "Argument of Periapsis(deg)": 0.029629170758455132,
        "Eccentricity": 0.0,
        "Inclination(deg)": 53.0,
        "Latitude(deg)": 22.46182495271308,
        "Longitude(deg)": -106.61428976615244,
        "Mean Anomaly(deg)": 151.46245230232077,
        "RAAN(deg)": 194.95590454341482,
        "Satellite Name": "Starlink Shell 1 864",
        "Satellite Number": 864,
        "Semi-Major Axis(m)": 6931778.249405717,
        "Time(s)": 850
    },
    {
        "Altitude(m)": 553996.9068889593,
        "Argument of Periapsis(deg)": 0.02997774923796637,
        "Eccentricity": 0.0,
        "Inclination(deg)": 53.0,
        "Latitude(deg)": 21.982573672316626,
        "Longitude(deg)": -106.2163280228325,
        "Mean Anomaly(deg)": 152.0892835058775,
        "RAAN(deg)": 194.95538577333735,
        "Satellite Name": "Starlink Shell 1 864",
        "Satellite Number": 864,
        "Semi-Major Axis(m)": 6931778.249405717,
        "Time(s)": 860
    },
    {
        "Altitude(m)": 553950.4193854192,
        "Argument of Periapsis(deg)": 0.030326327717477602,
        "Eccentricity": 0.0,
        "Inclination(deg)": 53.0,
        "Latitude(deg)": 21.502128349033065,
        "Longitude(deg)": -105.82130780628344,
        "Mean Anomaly(deg)": 152.71611470943415,
        "RAAN(deg)": 194.95486700325986,
        "Satellite Name": "Starlink Shell 1 864",
        "Satellite Number": 864,
        "Semi-Major Axis(m)": 6931778.249405717,
        "Time(s)": 870
    },
    {
        "Altitude(m)": 553905.8839639665,
        "Argument of Periapsis(deg)": 0.030674906196988847,
        "Eccentricity": 0.0,
        "Inclination(deg)": 53.0,
        "Latitude(deg)": 21.020525046615322,
        "Longitude(deg)": -105.42914646189912,
        "Mean Anomaly(deg)": 153.3429459129909,
        "RAAN(deg)": 194.95434823318237,
        "Satellite Name": "Starlink Shell 1 864",
        "Satellite Number": 864,
        "Semi-Major Axis(m)": 6931778.249405717,
        "Time(s)": 880
    },
    {
        "Altitude(m)": 553863.3432592312,
        "Argument of Periapsis(deg)": 0.031023484676500086,
        "Eccentricity": 0.0,
        "Inclination(deg)": 53.0,
        "Latitude(deg)": 20.53779915937982,
        "Longitude(deg)": -105.039762464736,
        "Mean Anomaly(deg)": 153.96977711654768,
        "RAAN(deg)": 194.9538294631049,
        "Satellite Name": "Starlink Shell 1 864",
        "Satellite Number": 864,
        "Semi-Major Axis(m)": 6931778.249405717,
        "Time(s)": 890
    },
    {
        "Altitude(m)": 553822.8390628559,
        "Argument of Periapsis(deg)": 0.03137206315601132,
        "Eccentricity": 0.0,
        "Inclination(deg)": 53.0,
        "Latitude(deg)": 20.053985434772123,
        "Longitude(deg)": -104.65307489203992,
        "Mean Anomaly(deg)": 154.59660832010434,
        "RAAN(deg)": 194.95331069302748,
        "Satellite Name": "Starlink Shell 1 864",
        "Satellite Number": 864,
        "Semi-Major Axis(m)": 6931778.249405717,
        "Time(s)": 900
    },
    {
        "Altitude(m)": 553784.412300354,
        "Argument of Periapsis(deg)": 0.03172064163552255,
        "Eccentricity": 0.0,
        "Inclination(deg)": 53.0,
        "Latitude(deg)": 19.56911799543633,
        "Longitude(deg)": -104.26900440800432,
        "Mean Anomaly(deg)": 155.22343952366109,
        "RAAN(deg)": 194.95279192294996,
        "Satellite Name": "Starlink Shell 1 864",
        "Satellite Number": 864,
        "Semi-Major Axis(m)": 6931778.249405717,
        "Time(s)": 910
    },
    {
        "Altitude(m)": 553748.103008359,
        "Argument of Periapsis(deg)": 0.0320692201150338,
        "Eccentricity": 0.0,
        "Inclination(deg)": 53.0,
        "Latitude(deg)": 19.083230360795397,
        "Longitude(deg)": -103.8874727350928,
        "Mean Anomaly(deg)": 155.85027072721772,
        "RAAN(deg)": 194.95227315287252,
        "Satellite Name": "Starlink Shell 1 864",
        "Satellite Number": 864,
        "Semi-Major Axis(m)": 6931778.249405717,
        "Time(s)": 920
    },
    {
        "Altitude(m)": 553713.9503122759,
        "Argument of Periapsis(deg)": 0.032417798594545036,
        "Eccentricity": 0.0,
        "Inclination(deg)": 53.0,
        "Latitude(deg)": 18.596355468151593,
        "Longitude(deg)": -103.5084021248715,
        "Mean Anomaly(deg)": 156.4771019307745,
        "RAAN(deg)": 194.95175438279506,
        "Satellite Name": "Starlink Shell 1 864",
        "Satellite Number": 864,
        "Semi-Major Axis(m)": 6931778.249405717,
        "Time(s)": 930
    },
    {
        "Altitude(m)": 553681.9924043706,
        "Argument of Periapsis(deg)": 0.03276637707405627,
        "Eccentricity": 0.0,
        "Inclination(deg)": 53.0,
        "Latitude(deg)": 18.10852569331935,
        "Longitude(deg)": -103.13171634129003,
        "Mean Anomaly(deg)": 157.10393313433124,
        "RAAN(deg)": 194.95123561271757,
        "Satellite Name": "Starlink Shell 1 864",
        "Satellite Number": 864,
        "Semi-Major Axis(m)": 6931778.249405717,
        "Time(s)": 940
    }
]